{
    "links": {
        "self": "http://www.neowsapp.com/rest/v1/neo/3826886?api_key=iIulBulltgU6a56xZRHN4H3l9WmuAYTsLGpBGhQ2"
    },
    "id": "3826886",
    "neo_reference_id": "3826886",
    "name": "(2018 PR24)",
    "designation": "2018 PR24",
    "nasa_jpl_url": "http://ssd.jpl.nasa.gov/sbdb.cgi?sstr=3826886",
    "absolute_magnitude_h": 24.8,
    "estimated_diameter": {
        "kilometers": {
            "estimated_diameter_min": 0.0291443905,
            "estimated_diameter_max": 0.0651688382
        },
        "meters": {
            "estimated_diameter_min": 29.1443904535,
            "estimated_diameter_max": 65.1688382168
        },
        "miles": {
            "estimated_diameter_min": 0.018109479,
            "estimated_diameter_max": 0.0404940262
        },
        "feet": {
            "estimated_diameter_min": 95.6180819754,
            "estimated_diameter_max": 213.8085311752
        }
    },
    "is_potentially_hazardous_asteroid": false,
    "close_approach_data": [
        {
            "close_approach_date": "2018-08-01",
            "close_approach_date_full": "2018-Aug-01 12:37",
            "epoch_date_close_approach": 1533127020000,
            "relative_velocity": {
                "kilometers_per_second": "14.0110739352",
                "kilometers_per_hour": "50439.8661665854",
                "miles_per_hour": "31341.3712855652"
            },
            "miss_distance": {
                "astronomical": "0.0365241859",
                "lunar": "14.2079083151",
                "kilometers": "5463940.414124033",
                "miles": "3395135.1388283354"
            },
            "orbiting_body": "Earth"
        }
    ],
    "orbital_data": {
        "orbit_id": "1",
        "orbit_determination_date": "2018-08-22 08:12:07",
        "first_observation_date": "2018-08-14",
        "last_observation_date": "2018-08-21",
        "data_arc_in_days": 7,
        "observations_used": 8,
        "orbit_uncertainty": "9",
        "minimum_orbit_intersection": ".0338851",
        "jupiter_tisserand_invariant": "3.600",
        "epoch_osculation": "2458345.5",
        "eccentricity": ".5648071211596281",
        "semi_major_axis": "2.011196430514703",
        "inclination": "9.279998330455618",
        "ascending_node_longitude": "138.5267509298638",
        "orbital_period": "1041.789944388987",
        "perihelion_distance": ".8752583645091734",
        "perihelion_argument": "115.0412532203273",
        "aphelion_distance": "3.147134496520232",
        "perihelion_time": "2458291.418456402933",
        "mean_anomaly": "18.68836976187455",
        "mean_motion": ".3455591042502729",
        "equinox": "J2000",
        "orbit_class": {
            "orbit_class_type": "APO",
            "orbit_class_description": "Near-Earth asteroid orbits which cross the Earth’s orbit similar to that of 1862 Apollo",
            "orbit_class_range": "a (semi-major axis) > 1.0 AU; q (perihelion) < 1.017 AU"
        }
    },
    "is_sentry_object": false
}